start=new Date('2021-11-28T00:00:00.000Z').valueOf();
sats=[{"MEAN_MOTION":"15.06392750","MEAN_ANOMALY":"277.0841","SEMIMAJOR_AXIS":"6925.371","CLASSIFICATION_TYPE":"U","COUNTRY_CODE":"US","DECAY_DATE":null,"RA_OF_ASC_NODE":"177.3951","FILE":"3225675","NORAD_CAT_ID":"47560","SITE":"AFETR","OBJECT_NAME":"STARLINK-1959","TIME_SYSTEM":"UTC","BSTAR":"-0.00002195100000","OBJECT_TYPE":"PAYLOAD","ECCENTRICITY":"0.00021180","ELEMENT_SET_NO":"999","MEAN_MOTION_DDOT":"0.0000000000000","GP_ID":"190623687","LAUNCH_DATE":"2021-02-04","APOAPSIS":"548.703","REF_FRAME":"TEME","PERIAPSIS":"545.769","CENTER_NAME":"EARTH","TLE_LINE2":"2 47560  53.0540 177.3951 0002118  83.0389 277.0841 15.06392750 45520","EPHEMERIS_TYPE":"0","OBJECT_ID":"2021-009N","INCLINATION":"53.0540","MEAN_ELEMENT_THEORY":"SGP4","TLE_LINE1":"1 47560U 21009N   21331.87084028 -.00000609  00000-0 -21951-4 0  9990","RCS_SIZE":"LARGE","MEAN_MOTION_DOT":"-0.00000609","REV_AT_EPOCH":"4552","EPOCH":"2021-11-27T20:54:00.600192","PERIOD":"95.593","ARG_OF_PERICENTER":"83.0389"},{"SITE":"AFETR","OBJECT_NAME":"STARLINK-1960","TIME_SYSTEM":"UTC","OBJECT_TYPE":"PAYLOAD","BSTAR":"0.00009653300000","ECCENTRICITY":"0.00064080","ELEMENT_SET_NO":"999","GP_ID":"190622443","LAUNCH_DATE":"2021-02-04","MEAN_MOTION_DDOT":"0.0000000000000","MEAN_ANOMALY":"290.6625","MEAN_MOTION":"15.06394602","CLASSIFICATION_TYPE":"U","SEMIMAJOR_AXIS":"6925.365","COUNTRY_CODE":"US","DECAY_DATE":null,"RA_OF_ASC_NODE":"198.3446","FILE":"3225675","NORAD_CAT_ID":"47561","TLE_LINE1":"1 47561U 21009P   21331.65890708  .00001155  00000-0  96533-4 0  9990","MEAN_ELEMENT_THEORY":"SGP4","RCS_SIZE":"LARGE","MEAN_MOTION_DOT":"0.00001155","REV_AT_EPOCH":"4521","PERIOD":"95.592","ARG_OF_PERICENTER":"69.5051","EPOCH":"2021-11-27T15:48:49.571712","APOAPSIS":"551.668","REF_FRAME":"TEME","CENTER_NAME":"EARTH","PERIAPSIS":"542.792","EPHEMERIS_TYPE":"0","TLE_LINE2":"2 47561  53.0557 198.3446 0006408  69.5051 290.6625 15.06394602 45217","OBJECT_ID":"2021-009P","INCLINATION":"53.0557"},{"FILE":"3225675","RA_OF_ASC_NODE":"198.2754","NORAD_CAT_ID":"47562","MEAN_MOTION":"15.06394081","MEAN_ANOMALY":"288.4860","CLASSIFICATION_TYPE":"U","SEMIMAJOR_AXIS":"6925.367","COUNTRY_CODE":"US","DECAY_DATE":null,"ECCENTRICITY":"0.00019370","ELEMENT_SET_NO":"999","MEAN_MOTION_DDOT":"0.0000000000000","GP_ID":"190622693","LAUNCH_DATE":"2021-02-04","SITE":"AFETR","TIME_SYSTEM":"UTC","OBJECT_NAME":"STARLINK-1961","BSTAR":"-0.00003432700000","OBJECT_TYPE":"PAYLOAD","OBJECT_ID":"2021-009Q","INCLINATION":"53.0552","APOAPSIS":"548.573","REF_FRAME":"TEME","PERIAPSIS":"545.890","CENTER_NAME":"EARTH","TLE_LINE2":"2 47562  53.0552 198.2754 0001937  71.6340 288.4860 15.06394081 45218","EPHEMERIS_TYPE":"0","EPOCH":"2021-11-27T16:10:02.865792","PERIOD":"95.593","ARG_OF_PERICENTER":"71.6340","MEAN_ELEMENT_THEORY":"SGP4","TLE_LINE1":"1 47562U 21009Q   21331.67364428 -.00000793  00000-0 -34327-4 0  9990","RCS_SIZE":"LARGE","MEAN_MOTION_DOT":"-0.00000793","REV_AT_EPOCH":"4521"},{"RCS_SIZE":"LARGE","TLE_LINE1":"1 47563U 21009R   21331.89479329 -.00000978  00000-0 -46739-4 0  9997","MEAN_ELEMENT_THEORY":"SGP4","REV_AT_EPOCH":"4524","MEAN_MOTION_DOT":"-0.00000978","PERIOD":"95.593","ARG_OF_PERICENTER":"74.1627","EPOCH":"2021-11-27T21:28:30.140256","CENTER_NAME":"EARTH","PERIAPSIS":"545.864","REF_FRAME":"TEME","APOAPSIS":"548.599","EPHEMERIS_TYPE":"0","TLE_LINE2":"2 47563  53.0557 197.2831 0001975  74.1627 285.9580 15.06394168 45247","OBJECT_ID":"2021-009R","INCLINATION":"53.0557","TIME_SYSTEM":"UTC","OBJECT_NAME":"STARLINK-1962","SITE":"AFETR","OBJECT_TYPE":"PAYLOAD","BSTAR":"-0.00004673900000","ELEMENT_SET_NO":"999","ECCENTRICITY":"0.00019750","LAUNCH_DATE":"2021-02-04","GP_ID":"190623429","MEAN_MOTION_DDOT":"0.0000000000000","SEMIMAJOR_AXIS":"6925.366","CLASSIFICATION_TYPE":"U","MEAN_ANOMALY":"285.9580","MEAN_MOTION":"15.06394168","DECAY_DATE":null,"COUNTRY_CODE":"US","FILE":"3225675","NORAD_CAT_ID":"47563","RA_OF_ASC_NODE":"197.2831"},{"COUNTRY_CODE":"US","DECAY_DATE":null,"MEAN_MOTION":"15.06394978","MEAN_ANOMALY":"280.9211","SEMIMAJOR_AXIS":"6925.364","CLASSIFICATION_TYPE":"U","NORAD_CAT_ID":"47564","FILE":"3225675","RA_OF_ASC_NODE":"187.2748","BSTAR":"0.00008273300000","OBJECT_TYPE":"PAYLOAD","SITE":"AFETR","TIME_SYSTEM":"UTC","OBJECT_NAME":"STARLINK-1963","MEAN_MOTION_DDOT":"0.0000000000000","GP_ID":"190623188","LAUNCH_DATE":"2021-02-04","ECCENTRICITY":"0.00022170","ELEMENT_SET_NO":"999","TLE_LINE2":"2 47564  53.0544 187.2748 0002217  79.2027 280.9211 15.06394978 45380","EPHEMERIS_TYPE":"0","REF_FRAME":"TEME","APOAPSIS":"548.764","PERIAPSIS":"545.694","CENTER_NAME":"EARTH","INCLINATION":"53.0544","OBJECT_ID":"2021-009S","MEAN_MOTION_DOT":"0.00000951","REV_AT_EPOCH":"4538","MEAN_ELEMENT_THEORY":"SGP4","TLE_LINE1":"1 47564U 21009S   21331.89573043  .00000951  00000-0  82733-4 0  9999","RCS_SIZE":"LARGE","EPOCH":"2021-11-27T21:29:51.109152","ARG_OF_PERICENTER":"79.2027","PERIOD":"95.592"},{"OBJECT_ID":"2021-009T","INCLINATION":"53.0542","APOAPSIS":"548.674","REF_FRAME":"TEME","CENTER_NAME":"EARTH","PERIAPSIS":"545.724","EPHEMERIS_TYPE":"0","TLE_LINE2":"2 47565  53.0542 187.2891 0002130  72.2551 287.8671 15.06404827 45388","PERIOD":"95.592","ARG_OF_PERICENTER":"72.2551","EPOCH":"2021-11-27T21:24:31.130208","TLE_LINE1":"1 47565U 21009T   21331.89202697  .00001157  00000-0  96568-4 0  9994","MEAN_ELEMENT_THEORY":"SGP4","RCS_SIZE":"LARGE","MEAN_MOTION_DOT":"0.00001157","REV_AT_EPOCH":"4538","FILE":"3225675","NORAD_CAT_ID":"47565","RA_OF_ASC_NODE":"187.2891","MEAN_ANOMALY":"287.8671","MEAN_MOTION":"15.06404827","CLASSIFICATION_TYPE":"U","SEMIMAJOR_AXIS":"6925.334","COUNTRY_CODE":"US","DECAY_DATE":null,"ECCENTRICITY":"0.00021300","ELEMENT_SET_NO":"999","LAUNCH_DATE":"2021-02-04","GP_ID":"190621944","MEAN_MOTION_DDOT":"0.0000000000000","SITE":"AFETR","TIME_SYSTEM":"UTC","OBJECT_NAME":"STARLINK-1964","OBJECT_TYPE":"PAYLOAD","BSTAR":"0.00009656800000"},{"REV_AT_EPOCH":"4548","MEAN_MOTION_DOT":"0.00000946","RCS_SIZE":"LARGE","MEAN_ELEMENT_THEORY":"SGP4","TLE_LINE1":"1 47566U 21009U   21331.62019157  .00000946  00000-0  82403-4 0  9991","EPOCH":"2021-11-27T14:53:04.551648","ARG_OF_PERICENTER":"79.3234","PERIOD":"95.592","TLE_LINE2":"2 47566  53.0547 178.5049 0002195  79.3234 280.8002 15.06399748 45486","EPHEMERIS_TYPE":"0","PERIAPSIS":"545.694","CENTER_NAME":"EARTH","APOAPSIS":"548.734","REF_FRAME":"TEME","INCLINATION":"53.0547","OBJECT_ID":"2021-009U","BSTAR":"0.00008240300000","OBJECT_TYPE":"PAYLOAD","TIME_SYSTEM":"UTC","OBJECT_NAME":"STARLINK-1965","SITE":"AFETR","MEAN_MOTION_DDOT":"0.0000000000000","LAUNCH_DATE":"2021-02-04","GP_ID":"190622194","ELEMENT_SET_NO":"999","ECCENTRICITY":"0.00021950","DECAY_DATE":null,"COUNTRY_CODE":"US","SEMIMAJOR_AXIS":"6925.349","CLASSIFICATION_TYPE":"U","MEAN_MOTION":"15.06399748","MEAN_ANOMALY":"280.8002","FILE":"3225675","RA_OF_ASC_NODE":"178.5049","NORAD_CAT_ID":"47566"},{"INCLINATION":"53.0551","OBJECT_ID":"2021-009V","EPHEMERIS_TYPE":"0","TLE_LINE2":"2 47567  53.0551 218.0505 0002175  70.9133 289.2091 15.06400966 44937","CENTER_NAME":"EARTH","PERIAPSIS":"545.704","REF_FRAME":"TEME","APOAPSIS":"548.717","ARG_OF_PERICENTER":"70.9133","PERIOD":"95.592","EPOCH":"2021-11-27T17:21:41.129280","REV_AT_EPOCH":"4493","MEAN_MOTION_DOT":"0.00000038","RCS_SIZE":"LARGE","TLE_LINE1":"1 47567U 21009V   21331.72339270  .00000038  00000-0  21464-4 0  9996","MEAN_ELEMENT_THEORY":"SGP4","FILE":"3225675","RA_OF_ASC_NODE":"218.0505","NORAD_CAT_ID":"47567","DECAY_DATE":null,"COUNTRY_CODE":"US","CLASSIFICATION_TYPE":"U","SEMIMAJOR_AXIS":"6925.346","MEAN_ANOMALY":"289.2091","MEAN_MOTION":"15.06400966","GP_ID":"190622930","LAUNCH_DATE":"2021-02-04","MEAN_MOTION_DDOT":"0.0000000000000","ELEMENT_SET_NO":"999","ECCENTRICITY":"0.00021750","OBJECT_TYPE":"PAYLOAD","BSTAR":"0.00002146400000","TIME_SYSTEM":"UTC","OBJECT_NAME":"STARLINK-1966","SITE":"AFETR"},{"MEAN_MOTION_DOT":"0.00000232","REV_AT_EPOCH":"4495","TLE_LINE1":"1 47568U 21009W   21331.81555042  .00000232  00000-0  34461-4 0  9991","MEAN_ELEMENT_THEORY":"SGP4","RCS_SIZE":"LARGE","ARG_OF_PERICENTER":"75.7510","PERIOD":"95.593","EPOCH":"2021-11-27T19:34:23.556288","EPHEMERIS_TYPE":"0","TLE_LINE2":"2 47568  53.0541 217.6378 0001962  75.7510 284.3697 15.06394194 44950","APOAPSIS":"548.590","REF_FRAME":"TEME","CENTER_NAME":"EARTH","PERIAPSIS":"545.873","INCLINATION":"53.0541","OBJECT_ID":"2021-009W","OBJECT_TYPE":"PAYLOAD","BSTAR":"0.00003446100000","SITE":"AFETR","TIME_SYSTEM":"UTC","OBJECT_NAME":"STARLINK-1967","GP_ID":"190623688","LAUNCH_DATE":"2021-02-04","MEAN_MOTION_DDOT":"0.0000000000000","ECCENTRICITY":"0.00019620","ELEMENT_SET_NO":"999","COUNTRY_CODE":"US","DECAY_DATE":null,"MEAN_ANOMALY":"284.3697","MEAN_MOTION":"15.06394194","CLASSIFICATION_TYPE":"U","SEMIMAJOR_AXIS":"6925.366","FILE":"3225675","NORAD_CAT_ID":"47568","RA_OF_ASC_NODE":"217.6378"},{"OBJECT_ID":"2021-009X","INCLINATION":"53.0496","CENTER_NAME":"EARTH","PERIAPSIS":"438.436","APOAPSIS":"441.023","REF_FRAME":"TEME","EPHEMERIS_TYPE":"0","TLE_LINE2":"2 47569  53.0496 187.0714 0001897  43.5185 316.5969 15.42162787 45392","ARG_OF_PERICENTER":"43.5185","PERIOD":"93.375","EPOCH":"2021-11-27T20:57:17.838432","RCS_SIZE":"LARGE","TLE_LINE1":"1 47569U 21009X   21331.87312313  .00000771  00000-0  27174-4 0  9991","MEAN_ELEMENT_THEORY":"SGP4","REV_AT_EPOCH":"4539","MEAN_MOTION_DOT":"0.00000771","NORAD_CAT_ID":"47569","FILE":"3225675","RA_OF_ASC_NODE":"187.0714","CLASSIFICATION_TYPE":"U","SEMIMAJOR_AXIS":"6817.864","MEAN_ANOMALY":"316.5969","MEAN_MOTION":"15.42162787","DECAY_DATE":null,"COUNTRY_CODE":"US","ELEMENT_SET_NO":"999","ECCENTRICITY":"0.00018970","GP_ID":"190622444","LAUNCH_DATE":"2021-02-04","MEAN_MOTION_DDOT":"0.0000000000000","OBJECT_NAME":"STARLINK-1968","TIME_SYSTEM":"UTC","SITE":"AFETR","OBJECT_TYPE":"PAYLOAD","BSTAR":"0.00002717400000"}];
